[{"OBJECT_NAME":"STARLINK-31670","OBJECT_ID":"2024-071G","EPOCH":"2025-09-25T04:40:18.867648","MEAN_MOTION":15.27572852,"ECCENTRICITY":0.00010014,"INCLINATION":43.003,"RA_OF_ASC_NODE":205.7799,"ARG_OF_PERICENTER":233.8035,"MEAN_ANOMALY":126.2724,"EPHEMERIS_TYPE":0,"CLASSIFICATION_TYPE":"U","NORAD_CAT_ID":59490,"ELEMENT_SET_NO":999,"REV_AT_EPOCH":8276,"BSTAR":4.7765443e-5,"MEAN_MOTION_DOT":1.052e-5,"MEAN_MOTION_DDOT":0},{"OBJECT_NAME":"STARLINK-31712","OBJECT_ID":"2024-071H","EPOCH":"2025-09-24T23:59:41.123328","MEAN_MOTION":15.2757549,"ECCENTRICITY":0.00016395,"INCLINATION":43.0022,"RA_OF_ASC_NODE":206.8751,"ARG_OF_PERICENTER":246.4097,"MEAN_ANOMALY":113.6583,"EPHEMERIS_TYPE":0,"CLASSIFICATION_TYPE":"U","NORAD_CAT_ID":59491,"ELEMENT_SET_NO":999,"REV_AT_EPOCH":8273,"BSTAR":1.2346744e-5,"MEAN_MOTION_DOT":7.7e-7,"MEAN_MOTION_DDOT":0},{"OBJECT_NAME":"STARLINK-31684","OBJECT_ID":"2024-071J","EPOCH":"2025-09-24T23:23:22.270848","MEAN_MOTION":15.27577653,"ECCENTRICITY":0.00013689,"INCLINATION":43.0019,"RA_OF_ASC_NODE":203.2252,"ARG_OF_PERICENTER":261.0795,"MEAN_ANOMALY":98.9901,"EPHEMERIS_TYPE":0,"CLASSIFICATION_TYPE":"U","NORAD_CAT_ID":59492,"ELEMENT_SET_NO":999,"REV_AT_EPOCH":8277,"BSTAR":-1.2440344e-5,"MEAN_MOTION_DOT":-6.04e-6,"MEAN_MOTION_DDOT":0},{"OBJECT_NAME":"STARLINK-31678","OBJECT_ID":"2024-071K","EPOCH":"2025-09-24T04:44:36.305952","MEAN_MOTION":15.27573022,"ECCENTRICITY":4.497e-5,"INCLINATION":42.9987,"RA_OF_ASC_NODE":207.7125,"ARG_OF_PERICENTER":313.0881,"MEAN_ANOMALY":46.9933,"EPHEMERIS_TYPE":0,"CLASSIFICATION_TYPE":"U","NORAD_CAT_ID":59493,"ELEMENT_SET_NO":999,"REV_AT_EPOCH":8147,"BSTAR":-2.3189333e-5,"MEAN_MOTION_DOT":-9.0e-6,"MEAN_MOTION_DDOT":0},{"OBJECT_NAME":"STARLINK-31744","OBJECT_ID":"2024-071L","EPOCH":"2025-09-24T04:39:02.532384","MEAN_MOTION":15.27580069,"ECCENTRICITY":0.00010101,"INCLINATION":43.0002,"RA_OF_ASC_NODE":207.6818,"ARG_OF_PERICENTER":269.8382,"MEAN_ANOMALY":90.2353,"EPHEMERIS_TYPE":0,"CLASSIFICATION_TYPE":"U","NORAD_CAT_ID":59494,"ELEMENT_SET_NO":999,"REV_AT_EPOCH":8265,"BSTAR":2.4324352e-5,"MEAN_MOTION_DOT":4.07e-6,"MEAN_MOTION_DDOT":0},{"OBJECT_NAME":"STARLINK-31719","OBJECT_ID":"2024-071M","EPOCH":"2025-09-25T03:17:17.281248","MEAN_MOTION":15.27573323,"ECCENTRICITY":0.00010723,"INCLINATION":43.0004,"RA_OF_ASC_NODE":194.9455,"ARG_OF_PERICENTER":318.9132,"MEAN_ANOMALY":41.1639,"EPHEMERIS_TYPE":0,"CLASSIFICATION_TYPE":"U","NORAD_CAT_ID":59495,"ELEMENT_SET_NO":999,"REV_AT_EPOCH":8288,"BSTAR":-0.00011344056,"MEAN_MOTION_DOT":-3.382e-5,"MEAN_MOTION_DDOT":0},{"OBJECT_NAME":"STARLINK-31728","OBJECT_ID":"2024-071N","EPOCH":"2025-09-24T04:49:28.469280","MEAN_MOTION":15.27606182,"ECCENTRICITY":0.00010523,"INCLINATION":43.0005,"RA_OF_ASC_NODE":199.9557,"ARG_OF_PERICENTER":292.3318,"MEAN_ANOMALY":67.7422,"EPHEMERIS_TYPE":0,"CLASSIFICATION_TYPE":"U","NORAD_CAT_ID":59496,"ELEMENT_SET_NO":999,"REV_AT_EPOCH":8274,"BSTAR":0.0021598473,"MEAN_MOTION_DOT":0.00059702,"MEAN_MOTION_DDOT":0},{"OBJECT_NAME":"STARLINK-31720","OBJECT_ID":"2024-071P","EPOCH":"2025-09-24T22:58:52.742496","MEAN_MOTION":15.27569013,"ECCENTRICITY":8.316e-5,"INCLINATION":42.9962,"RA_OF_ASC_NODE":196.1735,"ARG_OF_PERICENTER":279.3492,"MEAN_ANOMALY":80.7265,"EPHEMERIS_TYPE":0,"CLASSIFICATION_TYPE":"U","NORAD_CAT_ID":59497,"ELEMENT_SET_NO":999,"REV_AT_EPOCH":8285,"BSTAR":-7.8913293e-5,"MEAN_MOTION_DOT":-2.432e-5,"MEAN_MOTION_DDOT":0},{"OBJECT_NAME":"STARLINK-31731","OBJECT_ID":"2024-071Q","EPOCH":"2025-09-25T03:48:31.718880","MEAN_MOTION":15.27602413,"ECCENTRICITY":0.00017557,"INCLINATION":42.9993,"RA_OF_ASC_NODE":194.2394,"ARG_OF_PERICENTER":292.358,"MEAN_ANOMALY":67.7086,"EPHEMERIS_TYPE":0,"CLASSIFICATION_TYPE":"U","NORAD_CAT_ID":59498,"ELEMENT_SET_NO":999,"REV_AT_EPOCH":8289,"BSTAR":0.0027647264,"MEAN_MOTION_DOT":0.00076664,"MEAN_MOTION_DDOT":0},{"OBJECT_NAME":"STARLINK-31742","OBJECT_ID":"2024-071R","EPOCH":"2025-09-25T04:01:29.076960","MEAN_MOTION":15.27563928,"ECCENTRICITY":0.00011009,"INCLINATION":42.9976,"RA_OF_ASC_NODE":194.31,"ARG_OF_PERICENTER":273.9211,"MEAN_ANOMALY":86.1515,"EPHEMERIS_TYPE":0,"CLASSIFICATION_TYPE":"U","NORAD_CAT_ID":59499,"ELEMENT_SET_NO":999,"REV_AT_EPOCH":8289,"BSTAR":0.00015548084,"MEAN_MOTION_DOT":4.017e-5,"MEAN_MOTION_DDOT":0},{"OBJECT_NAME":"STARLINK-31512","OBJECT_ID":"2024-071S","EPOCH":"2025-09-25T00:23:27.878496","MEAN_MOTION":15.27558153,"ECCENTRICITY":0.00010767,"INCLINATION":43.0021,"RA_OF_ASC_NODE":155.2289,"ARG_OF_PERICENTER":296.8576,"MEAN_ANOMALY":63.2166,"EPHEMERIS_TYPE":0,"CLASSIFICATION_TYPE":"U","NORAD_CAT_ID":59500,"ELEMENT_SET_NO":999,"REV_AT_EPOCH":8332,"BSTAR":-7.7643231e-5,"MEAN_MOTION_DOT":-2.396e-5,"MEAN_MOTION_DDOT":0},{"OBJECT_NAME":"STARLINK-31458","OBJECT_ID":"2024-071T","EPOCH":"2025-09-25T04:08:52.087776","MEAN_MOTION":15.27587449,"ECCENTRICITY":0.00012612,"INCLINATION":42.9983,"RA_OF_ASC_NODE":194.3468,"ARG_OF_PERICENTER":256.3322,"MEAN_ANOMALY":103.7389,"EPHEMERIS_TYPE":0,"CLASSIFICATION_TYPE":"U","NORAD_CAT_ID":59501,"ELEMENT_SET_NO":999,"REV_AT_EPOCH":8289,"BSTAR":-0.00033398512,"MEAN_MOTION_DOT":-9.443e-5,"MEAN_MOTION_DDOT":0},{"OBJECT_NAME":"STARLINK-31357","OBJECT_ID":"2024-071U","EPOCH":"2025-09-25T03:28:23.560032","MEAN_MOTION":15.2756064,"ECCENTRICITY":0.00015244,"INCLINATION":43.0021,"RA_OF_ASC_NODE":194.9986,"ARG_OF_PERICENTER":278.8852,"MEAN_ANOMALY":81.1827,"EPHEMERIS_TYPE":0,"CLASSIFICATION_TYPE":"U","NORAD_CAT_ID":59502,"ELEMENT_SET_NO":999,"REV_AT_EPOCH":8288,"BSTAR":-6.6224564e-5,"MEAN_MOTION_DOT":-2.083e-5,"MEAN_MOTION_DDOT":0},{"OBJECT_NAME":"STARLINK-31508","OBJECT_ID":"2024-071V","EPOCH":"2025-09-24T05:35:44.016576","MEAN_MOTION":15.27583058,"ECCENTRICITY":0.00012218,"INCLINATION":42.9992,"RA_OF_ASC_NODE":200.1941,"ARG_OF_PERICENTER":257.7275,"MEAN_ANOMALY":102.344,"EPHEMERIS_TYPE":0,"CLASSIFICATION_TYPE":"U","NORAD_CAT_ID":59503,"ELEMENT_SET_NO":999,"REV_AT_EPOCH":8274,"BSTAR":1.7465039e-5,"MEAN_MOTION_DOT":2.19e-6,"MEAN_MOTION_DDOT":0},{"OBJECT_NAME":"STARLINK-31535","OBJECT_ID":"2024-071W","EPOCH":"2025-09-24T22:05:52.970208","MEAN_MOTION":15.27557975,"ECCENTRICITY":0.00013892,"INCLINATION":43.0023,"RA_OF_ASC_NODE":203.6763,"ARG_OF_PERICENTER":269.1137,"MEAN_ANOMALY":90.9556,"EPHEMERIS_TYPE":0,"CLASSIFICATION_TYPE":"U","NORAD_CAT_ID":59504,"ELEMENT_SET_NO":999,"REV_AT_EPOCH":8276,"BSTAR":-0.00017479938,"MEAN_MOTION_DOT":-5.066e-5,"MEAN_MOTION_DDOT":0},{"OBJECT_NAME":"STARLINK-31533","OBJECT_ID":"2024-071X","EPOCH":"2025-09-25T05:19:11.702208","MEAN_MOTION":15.2758554,"ECCENTRICITY":0.00012065,"INCLINATION":43.0031,"RA_OF_ASC_NODE":194.7156,"ARG_OF_PERICENTER":278.4601,"MEAN_ANOMALY":81.6114,"EPHEMERIS_TYPE":0,"CLASSIFICATION_TYPE":"U","NORAD_CAT_ID":59505,"ELEMENT_SET_NO":999,"REV_AT_EPOCH":8289,"BSTAR":0.00021452091,"MEAN_MOTION_DOT":5.647e-5,"MEAN_MOTION_DDOT":0}]
