STARLINK-31670          
1 59490U 24071G   25268.19466282  .00001052  00000+0  47765-4 0  9992
2 59490  43.0030 205.7799 0001001 233.8035 126.2724 15.27572852 82765
STARLINK-31712          
1 59491U 24071H   25267.99978152  .00000077  00000+0  12347-4 0  9998
2 59491  43.0022 206.8751 0001639 246.4097 113.6583 15.27575490 82733
STARLINK-31684          
1 59492U 24071J   25267.97456332 -.00000604  00000+0 -12440-4 0  9990
2 59492  43.0019 203.2252 0001368 261.0795  98.9901 15.27577653 82770
STARLINK-31678          
1 59493U 24071K   25267.19764243 -.00000900  00000+0 -23189-4 0  9999
2 59493  42.9987 207.7125 0000449 313.0881  46.9933 15.27573022 81474
STARLINK-31744          
1 59494U 24071L   25267.19377931  .00000407  00000+0  24324-4 0  9996
2 59494  43.0002 207.6818 0001010 269.8382  90.2353 15.27580069 82650
STARLINK-31719          
1 59495U 24071M   25268.13700557 -.00003382  00000+0 -11344-3 0  9990
2 59495  43.0004 194.9455 0001072 318.9132  41.1639 15.27573323 82887
STARLINK-31728          
1 59496U 24071N   25267.20102395  .00059702  00000+0  21598-2 0  9990
2 59496  43.0005 199.9557 0001052 292.3318  67.7422 15.27606182 82745
STARLINK-31720          
1 59497U 24071P   25267.95755489 -.00002432  00000+0 -78913-4 0  9996
2 59497  42.9962 196.1735 0000831 279.3492  80.7265 15.27569013 82858
STARLINK-31731          
1 59498U 24071Q   25268.15870045  .00076664  00000+0  27647-2 0  9998
2 59498  42.9993 194.2394 0001755 292.3580  67.7086 15.27602413 82894
STARLINK-31742          
1 59499U 24071R   25268.16769765  .00004017  00000+0  15548-3 0  9997
2 59499  42.9976 194.3100 0001100 273.9211  86.1515 15.27563928 82891
STARLINK-31512          
1 59500U 24071S   25268.01629489 -.00002396  00000+0 -77643-4 0  9997
2 59500  43.0021 155.2289 0001076 296.8576  63.2166 15.27558153 83322
STARLINK-31458          
1 59501U 24071T   25268.17282509 -.00009443  00000+0 -33399-3 0  9992
2 59501  42.9983 194.3468 0001261 256.3322 103.7389 15.27587449 82895
STARLINK-31357          
1 59502U 24071U   25268.14471713 -.00002083  00000+0 -66225-4 0  9995
2 59502  43.0021 194.9986 0001524 278.8852  81.1827 15.27560640 82880
STARLINK-31508          
1 59503U 24071V   25267.23314834  .00000219  00000+0  17465-4 0  9994
2 59503  42.9992 200.1941 0001221 257.7275 102.3440 15.27583058 82746
STARLINK-31535          
1 59504U 24071W   25267.92075197 -.00005066  00000+0 -17480-3 0  9990
2 59504  43.0023 203.6763 0001389 269.1137  90.9556 15.27557975 82764
STARLINK-31533          
1 59505U 24071X   25268.22166322  .00005647  00000+0  21452-3 0  9993
2 59505  43.0031 194.7156 0001206 278.4601  81.6114 15.27585540 82897
